[{"OBJECT_NAME":"RROCI-2","OBJECT_ID":"2024-043J","EPOCH":"2026-03-09T21:40:56.693280","MEAN_MOTION":14.99383357,"ECCENTRICITY":0.00054118,"INCLINATION":97.8279,"RA_OF_ASC_NODE":200.9973,"ARG_OF_PERICENTER":337.3784,"MEAN_ANOMALY":22.7199,"EPHEMERIS_TYPE":0,"CLASSIFICATION_TYPE":"U","NORAD_CAT_ID":59106,"ELEMENT_SET_NO":999,"REV_AT_EPOCH":10988,"BSTAR":0.00035067832,"MEAN_MOTION_DOT":4.232e-5,"MEAN_MOTION_DDOT":0},{"OBJECT_NAME":"STARLINK-36189","OBJECT_ID":"2025-293H","EPOCH":"2026-03-09T11:58:18.945696","MEAN_MOTION":14.98332853,"ECCENTRICITY":0.00031517,"INCLINATION":70.0008,"RA_OF_ASC_NODE":94.761,"ARG_OF_PERICENTER":268.6465,"MEAN_ANOMALY":91.4333,"EPHEMERIS_TYPE":0,"CLASSIFICATION_TYPE":"U","NORAD_CAT_ID":67010,"ELEMENT_SET_NO":999,"REV_AT_EPOCH":1486,"BSTAR":0.00033521818,"MEAN_MOTION_DOT":3.909e-5,"MEAN_MOTION_DDOT":0}]
